GLOBALSTAR M035         
1 25851U 99037A   24361.54675418 -.00000120  00000+0 -21282-2 0  9996
2 25851  51.9961  79.9688 0013947  65.8277  18.8763 11.04535242 77183
GLOBALSTAR M032         
1 25852U 99037B   24361.49066378 -.00000062  00000+0  16322-3 0  9994
2 25852  51.9959 277.2067 0010143 238.8879 121.0926 11.19055115115453
GLOBALSTAR M030         
1 25854U 99037D   24361.44707005 -.00000036  00000+0  83017-3 0  9996
2 25854  51.9884 274.6966 0004280  91.3663 268.7644 11.55101432130085
GLOBALSTAR M048         
1 25872U 99041A   24361.43568955 -.00000050  00000+0  54792-3 0  9993
2 25872  51.9396  25.9881 0013298 244.5714 257.2766 11.33852774105385
GLOBALSTAR M026         
1 25873U 99041B   24361.55244218  .00000037  00000+0  37352-2 0  9996
2 25873  51.9967 199.7316 0001415  16.1999 355.6713 11.06825906129376
GLOBALSTAR M043         
1 25874U 99041C   24361.56200675 -.00000053  00000+0  45986-3 0  9999
2 25874  51.9386 126.4524 0013069  22.1684  60.2634 11.25689102103433
GLOBALSTAR M028         
1 25875U 99041D   24361.43648275 -.00000123  00000+0 -14253-3 0  9990
2 25875  51.9648 348.1750 0063597  56.2844 304.4058 12.50572634168564
